COSMOS 2433 (720)       
1 32275U 07052A   23036.75614027 -.00000071  00000+0  00000+0 0  9996
2 32275  66.0632 356.9259 0004681 273.2190  49.7132  2.13104012118938
COSMOS 2432 (719)       
1 32276U 07052B   23036.17132986 -.00000074  00000+0  00000+0 0  9995
2 32276  66.0782 357.0504 0012140 321.4137 220.5198  2.13103326118923
COSMOS 2434 (721)       
1 32393U 07065A   23036.49026848  .00000077  00000+0  00000+0 0  9995
2 32393  64.3527 233.4796 0005084  74.0476 295.3023  2.13103117117640
COSMOS 2436 (723)       
1 32395U 07065C   23036.53160631  .00000077  00000+0  00000+0 0  9991
2 32395  64.3613 233.5375 0017049   8.4976 168.2295  2.13102858117574
COSMOS 2456 (730)       
1 36111U 09070A   23037.19840829  .00000011  00000+0  00000+0 0  9994
2 36111  64.4199 113.0258 0003984 298.2604  56.6038  2.13099067102314
COSMOS 2457 (733)       
1 36112U 09070B   23036.18197705  .00000001  00000+0  00000+0 0  9990
2 36112  64.4028 112.9307 0005397 172.3601 251.8820  2.13101228102308
COSMOS 2460 (732)       
1 36402U 10007C   23036.82230127 -.00000071  00000+0  00000+0 0  9999
2 36402  65.9302 355.6745 0002543 307.5005 233.9742  2.13106281100668
COSMOS 2476 (744)       
1 37867U 11064A   23036.37612059  .00000003  00000+0  00000+0 0  9991
2 37867  64.7028 114.5000 0022619 235.0131 116.5429  2.13101750 87649
COSMOS 2477 (745)       
1 37868U 11064B   23036.84744644  .00000008  00000+0  00000+0 0  9995
2 37868  64.7108 114.5511 0020123 236.5619 294.5593  2.13101532 87615
COSMOS 2475 (743)       
1 37869U 11064C   23036.67691021  .00000007  00000+0  00000+0 0  9996
2 37869  64.7184 114.5678 0024359 253.0618 105.4713  2.13101730 87616
COSMOS 2485 (747)       
1 39155U 13019A   23036.59787054  .00000006  00000+0  00000+0 0  9990
2 39155  64.8642 114.9710 0023409 232.3028 333.7471  2.13101910 76128
COSMOS 2492 (754)       
1 39620U 14012A   23036.71398559 -.00000072  00000+0  00000+0 0  9997
2 39620  65.8156 355.3274 0015171 319.0210  10.4226  2.13103138 69072
COSMOS 2500 (755)       
1 40001U 14032A   23037.06979059 -.00000070  00000+0  00000+0 0  9991
2 40001  65.7542 355.1582 0006327 226.2309 234.1751  2.13102373 67308
COSMOS 2501 (702K)      
1 40315U 14075A   23035.74337257  .00000080  00000+0  00000+0 0  9997
2 40315  63.6581 233.0448 0017002 204.2953 127.6526  2.13101349 63678
COSMOS 2514 (751)       
1 41330U 16008A   23036.22936488 -.00000075  00000+0  00000+0 0  9993
2 41330  65.5535 354.8211 0009896 226.1449 133.7656  2.13102866 54454
COSMOS 2516 (753)       
1 41554U 16032A   23035.88071350  .00000079  00000+0  00000+0 0  9990
2 41554  63.8848 233.3811 0013970 211.9593 147.9976  2.13106481 52050
COSMOS 2522 (752)       
1 42939U 17055A   23036.51442207  .00000077  00000+0  00000+0 0  9996
2 42939  64.1183 233.8236 0005020 238.0703 101.0151  2.13101967 41812
COSMOS 2527 (756)       
1 43508U 18053A   23036.46142481  .00000005  00000+0  00000+0 0  9994
2 43508  65.0270 115.0239 0008889 229.5089 100.8852  2.13102470 36105
COSMOS 2529 (757)       
1 43687U 18086A   23036.38166297  .00000078  00000+0  00000+0 0  9990
2 43687  64.3338 234.2070 0007004 272.3978 280.3152  2.13102063 33122
COSMOS 2534 (758)       
1 44299U 19030A   23036.91990818  .00000076  00000+0  00000+0 0  9991
2 44299  64.4061 234.0949 0010136 295.8701  84.1200  2.13101909 28781
COSMOS 2544 (759)       
1 44850U 19088A   23036.44355084  .00000005  00000+0  16595+1 0  9994
2 44850  65.0118 114.8730 0013171 255.1091 104.8404  2.13102186 24544
COSMOS 2545 (760)       
1 45358U 20018A   23036.27251394 -.00000076  00000+0  00000+0 0  9995
2 45358  64.8927 355.2375 0010874 258.1781 179.7630  2.13102616 22497
COSMOS 2547 (705K)      
1 46805U 20075A   23036.92269868  .00000076  00000+0  00000+0 0  9992
2 46805  64.6312 233.5881 0005148 241.9125 188.7007  2.13103015 17756
COSMOS 2557 (706K)      
1 52984U 22075A   23036.79505876 -.00000073  00000+0  10000-3 0  9999
2 52984  64.8019 357.4008 0013721 285.0422 284.4820  2.13101968  4544
COSMOS 2559 (707K)      
1 54031U 22130A   23036.68915645 -.00000073  00000+0  00000+0 0  9998
2 54031  64.7726 357.5398 0006704 238.8853 294.5777  2.13100925  2524
COSMOS 2564 (761)       
1 54377U 22161A   23036.86423803  .00000076  00000+0  00000+0 0  9997
2 54377  64.7915 233.6087 0006572 209.9445 308.2479  2.13102451  1476
